CCSDS_OMM_VERS = 2.0
CREATION_DATE  = 
ORIGINATOR     = 

OBJECT_NAME    = HULIANWANG DIGUI-133
OBJECT_ID      = 2025-311F
CENTER_NAME    = EARTH
REF_FRAME      = TEME
TIME_SYSTEM    = UTC
MEAN_ELEMENT_THEORY = SGP/SGP4

EPOCH          = 2026-01-12T06:12:51.788736
MEAN_MOTION    = 13.90208808
ECCENTRICITY   = .00075701
INCLINATION    = 50.0124
RA_OF_ASC_NODE = 326.9033
ARG_OF_PERICENTER = 332.1087
MEAN_ANOMALY   = 27.9406

EPHEMERIS_TYPE = 0
CLASSIFICATION_TYPE = U
NORAD_CAT_ID   = 67241
ELEMENT_SET_NO = 999
REV_AT_EPOCH   = 241
BSTAR          = .11009971E-3
MEAN_MOTION_DOT = -.9E-7
MEAN_MOTION_DDOT = 0

CCSDS_OMM_VERS = 2.0
CREATION_DATE  = 
ORIGINATOR     = 

OBJECT_NAME    = HULIANWANG DIGUI-134
OBJECT_ID      = 2025-311G
CENTER_NAME    = EARTH
REF_FRAME      = TEME
TIME_SYSTEM    = UTC
MEAN_ELEMENT_THEORY = SGP/SGP4

EPOCH          = 2026-01-12T06:14:23.739936
MEAN_MOTION    = 13.90194853
ECCENTRICITY   = .00066938
INCLINATION    = 50.0054
RA_OF_ASC_NODE = 326.8922
ARG_OF_PERICENTER = 321.1471
MEAN_ANOMALY   = 38.8946

EPHEMERIS_TYPE = 0
CLASSIFICATION_TYPE = U
NORAD_CAT_ID   = 67242
ELEMENT_SET_NO = 999
REV_AT_EPOCH   = 241
BSTAR          = .11334715E-3
MEAN_MOTION_DOT = -.5E-7
MEAN_MOTION_DDOT = 0

CCSDS_OMM_VERS = 2.0
CREATION_DATE  = 
ORIGINATOR     = 

OBJECT_NAME    = HULIANWANG DIGUI-135
OBJECT_ID      = 2025-311H
CENTER_NAME    = EARTH
REF_FRAME      = TEME
TIME_SYSTEM    = UTC
MEAN_ELEMENT_THEORY = SGP/SGP4

EPOCH          = 2026-01-12T06:17:21.944256
MEAN_MOTION    = 13.90183915
ECCENTRICITY   = .00079111
INCLINATION    = 50.0041
RA_OF_ASC_NODE = 326.8996
ARG_OF_PERICENTER = 323.6038
MEAN_ANOMALY   = 36.4322

EPHEMERIS_TYPE = 0
CLASSIFICATION_TYPE = U
NORAD_CAT_ID   = 67243
ELEMENT_SET_NO = 999
REV_AT_EPOCH   = 241
BSTAR          = .11258104E-3
MEAN_MOTION_DOT = -.6E-7
MEAN_MOTION_DDOT = 0

CCSDS_OMM_VERS = 2.0
CREATION_DATE  = 
ORIGINATOR     = 

OBJECT_NAME    = HULIANWANG DIGUI-136
OBJECT_ID      = 2025-311J
CENTER_NAME    = EARTH
REF_FRAME      = TEME
TIME_SYSTEM    = UTC
MEAN_ELEMENT_THEORY = SGP/SGP4

EPOCH          = 2026-01-12T06:11:16.518048
MEAN_MOTION    = 13.90229770
ECCENTRICITY   = .00068409
INCLINATION    = 50.0113
RA_OF_ASC_NODE = 326.8943
ARG_OF_PERICENTER = 329.9424
MEAN_ANOMALY   = 30.1082

EPHEMERIS_TYPE = 0
CLASSIFICATION_TYPE = U
NORAD_CAT_ID   = 67244
ELEMENT_SET_NO = 999
REV_AT_EPOCH   = 241
BSTAR          = .11008588E-3
MEAN_MOTION_DOT = -.9E-7
MEAN_MOTION_DDOT = 0

CCSDS_OMM_VERS = 2.0
CREATION_DATE  = 
ORIGINATOR     = 

OBJECT_NAME    = CZ-8A R/B
OBJECT_ID      = 2025-311K
CENTER_NAME    = EARTH
REF_FRAME      = TEME
TIME_SYSTEM    = UTC
MEAN_ELEMENT_THEORY = SGP/SGP4

EPOCH          = 2026-01-12T06:47:42.489024
MEAN_MOTION    = 14.12609390
ECCENTRICITY   = .00889521
INCLINATION    = 50.0040
RA_OF_ASC_NODE = 324.3484
ARG_OF_PERICENTER = 141.9014
MEAN_ANOMALY   = 218.8228

EPHEMERIS_TYPE = 0
CLASSIFICATION_TYPE = U
NORAD_CAT_ID   = 67245
ELEMENT_SET_NO = 999
REV_AT_EPOCH   = 245
BSTAR          = -.26444585E-4
MEAN_MOTION_DOT = -.207E-5
MEAN_MOTION_DDOT = 0

CCSDS_OMM_VERS = 2.0
CREATION_DATE  = 
ORIGINATOR     = 

OBJECT_NAME    = FENGYUN 4C
OBJECT_ID      = 2025-312A
CENTER_NAME    = EARTH
REF_FRAME      = TEME
TIME_SYSTEM    = UTC
MEAN_ELEMENT_THEORY = SGP/SGP4

EPOCH          = 2026-01-12T19:57:25.851744
MEAN_MOTION    = 1.00271516
ECCENTRICITY   = .0002588
INCLINATION    = 0.0794
RA_OF_ASC_NODE = 244.0986
ARG_OF_PERICENTER = 44.8699
MEAN_ANOMALY   = 255.7876

EPHEMERIS_TYPE = 0
CLASSIFICATION_TYPE = U
NORAD_CAT_ID   = 67246
ELEMENT_SET_NO = 999
REV_AT_EPOCH   = 22
BSTAR          = 0
MEAN_MOTION_DOT = -.304E-5
MEAN_MOTION_DDOT = 0

CCSDS_OMM_VERS = 2.0
CREATION_DATE  = 
ORIGINATOR     = 

OBJECT_NAME    = CZ-3B R/B
OBJECT_ID      = 2025-312B
CENTER_NAME    = EARTH
REF_FRAME      = TEME
TIME_SYSTEM    = UTC
MEAN_ELEMENT_THEORY = SGP/SGP4

EPOCH          = 2026-01-11T15:51:30.319776
MEAN_MOTION    = 2.42958489
ECCENTRICITY   = .72138251
INCLINATION    = 28.4159
RA_OF_ASC_NODE = 328.0082
ARG_OF_PERICENTER = 189.2456
MEAN_ANOMALY   = 141.5555

EPHEMERIS_TYPE = 0
CLASSIFICATION_TYPE = U
NORAD_CAT_ID   = 67247
ELEMENT_SET_NO = 999
REV_AT_EPOCH   = 38
BSTAR          = .4626414E-3
MEAN_MOTION_DOT = .151963E-2
MEAN_MOTION_DDOT = -.48549E-7

CCSDS_OMM_VERS = 2.0
CREATION_DATE  = 
ORIGINATOR     = 

OBJECT_NAME    = 2025-313A
OBJECT_ID      = 2025-313A
CENTER_NAME    = EARTH
REF_FRAME      = TEME
TIME_SYSTEM    = UTC
MEAN_ELEMENT_THEORY = SGP/SGP4

EPOCH          = 2026-01-12T19:42:14.293728
MEAN_MOTION    = 14.66789899
ECCENTRICITY   = .0280517
INCLINATION    = 97.5636
RA_OF_ASC_NODE = 89.1681
ARG_OF_PERICENTER = 115.7100
MEAN_ANOMALY   = 247.3353

EPHEMERIS_TYPE = 0
CLASSIFICATION_TYPE = U
NORAD_CAT_ID   = 67248
ELEMENT_SET_NO = 999
REV_AT_EPOCH   = 224
BSTAR          = .17362E-3
MEAN_MOTION_DOT = .1698E-4
MEAN_MOTION_DDOT = 0

CCSDS_OMM_VERS = 2.0
CREATION_DATE  = 
ORIGINATOR     = 

OBJECT_NAME    = 2025-313B
OBJECT_ID      = 2025-313B
CENTER_NAME    = EARTH
REF_FRAME      = TEME
TIME_SYSTEM    = UTC
MEAN_ELEMENT_THEORY = SGP/SGP4

EPOCH          = 2026-01-12T19:46:47.859456
MEAN_MOTION    = 14.73181992
ECCENTRICITY   = .0297737
INCLINATION    = 97.5325
RA_OF_ASC_NODE = 89.2436
ARG_OF_PERICENTER = 120.0019
MEAN_ANOMALY   = 243.1093

EPHEMERIS_TYPE = 0
CLASSIFICATION_TYPE = U
NORAD_CAT_ID   = 67249
ELEMENT_SET_NO = 999
REV_AT_EPOCH   = 225
BSTAR          = .33764E-3
MEAN_MOTION_DOT = .4396E-4
MEAN_MOTION_DDOT = 0

CCSDS_OMM_VERS = 2.0
CREATION_DATE  = 
ORIGINATOR     = 

OBJECT_NAME    = 2025-313C
OBJECT_ID      = 2025-313C
CENTER_NAME    = EARTH
REF_FRAME      = TEME
TIME_SYSTEM    = UTC
MEAN_ELEMENT_THEORY = SGP/SGP4

EPOCH          = 2026-01-12T18:39:05.361696
MEAN_MOTION    = 14.84628622
ECCENTRICITY   = .0163115
INCLINATION    = 97.6368
RA_OF_ASC_NODE = 89.6667
ARG_OF_PERICENTER = 130.2948
MEAN_ANOMALY   = 231.2656

EPHEMERIS_TYPE = 0
CLASSIFICATION_TYPE = U
NORAD_CAT_ID   = 67250
ELEMENT_SET_NO = 999
REV_AT_EPOCH   = 226
BSTAR          = .14894E-2
MEAN_MOTION_DOT = .15952E-3
MEAN_MOTION_DDOT = 0

CCSDS_OMM_VERS = 2.0
CREATION_DATE  = 
ORIGINATOR     = 

OBJECT_NAME    = 2025-313D
OBJECT_ID      = 2025-313D
CENTER_NAME    = EARTH
REF_FRAME      = TEME
TIME_SYSTEM    = UTC
MEAN_ELEMENT_THEORY = SGP/SGP4

EPOCH          = 2026-01-12T19:12:00.679968
MEAN_MOTION    = 14.88732286
ECCENTRICITY   = .0152305
INCLINATION    = 97.5879
RA_OF_ASC_NODE = 89.6775
ARG_OF_PERICENTER = 122.8682
MEAN_ANOMALY   = 238.7300

EPHEMERIS_TYPE = 0
CLASSIFICATION_TYPE = U
NORAD_CAT_ID   = 67251
ELEMENT_SET_NO = 999
REV_AT_EPOCH   = 227
BSTAR          = .26351E-3
MEAN_MOTION_DOT = .2998E-4
MEAN_MOTION_DDOT = 0

CCSDS_OMM_VERS = 2.0
CREATION_DATE  = 
ORIGINATOR     = 

OBJECT_NAME    = ZORKIY-2M-VPE
OBJECT_ID      = 2025-313E
CENTER_NAME    = EARTH
REF_FRAME      = TEME
TIME_SYSTEM    = UTC
MEAN_ELEMENT_THEORY = SGP/SGP4

EPOCH          = 2026-01-12T19:17:08.671776
MEAN_MOTION    = 15.21618680
ECCENTRICITY   = .0010954
INCLINATION    = 97.4118
RA_OF_ASC_NODE = 90.0358
ARG_OF_PERICENTER = 164.1810
MEAN_ANOMALY   = 195.9771

EPHEMERIS_TYPE = 0
CLASSIFICATION_TYPE = U
NORAD_CAT_ID   = 67252
ELEMENT_SET_NO = 999
REV_AT_EPOCH   = 232
BSTAR          = .36094E-3
MEAN_MOTION_DOT = .8095E-4
MEAN_MOTION_DDOT = 0

CCSDS_OMM_VERS = 2.0
CREATION_DATE  = 
ORIGINATOR     = 

OBJECT_NAME    = 2025-313F
OBJECT_ID      = 2025-313F
CENTER_NAME    = EARTH
REF_FRAME      = TEME
TIME_SYSTEM    = UTC
MEAN_ELEMENT_THEORY = SGP/SGP4

EPOCH          = 2026-01-12T18:35:26.431872
MEAN_MOTION    = 15.64930095
ECCENTRICITY   = .0010325
INCLINATION    = 97.1036
RA_OF_ASC_NODE = 90.0865
ARG_OF_PERICENTER = 183.6377
MEAN_ANOMALY   = 176.4810

EPHEMERIS_TYPE = 0
CLASSIFICATION_TYPE = U
NORAD_CAT_ID   = 67253
ELEMENT_SET_NO = 999
REV_AT_EPOCH   = 236
BSTAR          = .4652E-3
MEAN_MOTION_DOT = .45663E-3
MEAN_MOTION_DDOT = 0

CCSDS_OMM_VERS = 2.0
CREATION_DATE  = 
ORIGINATOR     = 

OBJECT_NAME    = 2025-313G
OBJECT_ID      = 2025-313G
CENTER_NAME    = EARTH
REF_FRAME      = TEME
TIME_SYSTEM    = UTC
MEAN_ELEMENT_THEORY = SGP/SGP4

EPOCH          = 2026-01-12T18:36:21.708864
MEAN_MOTION    = 15.64802665
ECCENTRICITY   = .0010584
INCLINATION    = 97.1036
RA_OF_ASC_NODE = 90.0855
ARG_OF_PERICENTER = 184.6091
MEAN_ANOMALY   = 175.5074

EPHEMERIS_TYPE = 0
CLASSIFICATION_TYPE = U
NORAD_CAT_ID   = 67254
ELEMENT_SET_NO = 999
REV_AT_EPOCH   = 235
BSTAR          = .41633E-3
MEAN_MOTION_DOT = .40629E-3
MEAN_MOTION_DDOT = 0

CCSDS_OMM_VERS = 2.0
CREATION_DATE  = 
ORIGINATOR     = 

OBJECT_NAME    = 2025-313H
OBJECT_ID      = 2025-313H
CENTER_NAME    = EARTH
REF_FRAME      = TEME
TIME_SYSTEM    = UTC
MEAN_ELEMENT_THEORY = SGP/SGP4

EPOCH          = 2026-01-12T19:09:05.071104
MEAN_MOTION    = 15.02162357
ECCENTRICITY   = .0091025
INCLINATION    = 97.3106
RA_OF_ASC_NODE = 89.4080
ARG_OF_PERICENTER = 143.4644
MEAN_ANOMALY   = 217.2839

EPHEMERIS_TYPE = 0
CLASSIFICATION_TYPE = U
NORAD_CAT_ID   = 67255
ELEMENT_SET_NO = 999
REV_AT_EPOCH   = 229
BSTAR          = .16666E-3
MEAN_MOTION_DOT = .2337E-4
MEAN_MOTION_DDOT = 0

